     2.100          NAVIGATION                              RINEX VERSION / TYPE
fic2rin                                 09/12/2009 01:38:48 PGM / RUN BY / DATE
                                                            END OF HEADER
 9 09  9 11  6  0  0.0  .768569298089D-04  .204636307899D-11  .000000000000D+00
     .810000000000D+02 -.826562500000D+02  .393087802256D-08 -.174560242399D+01
    -.406429171562D-05  .207037510118D-01  .693462789059D-05  .515363457298D+04
     .453600000000D+06  .331550836563D-06  .831140491332D+00  .430271029472D-06
     .977608860304D+00  .252343750000D+03  .151102870773D+01 -.772067874012D-08
    -.145006040084D-09  .100000000000D+01  .154800000000D+04  .000000000000D+00
     .340000000000D+01  .000000000000D+00 -.558793544769D-08  .810000000000D+02
     .446406000000D+06  .400000000000D+01
10 09  9 11  6  0  0.0 -.232839956880D-04 -.795807864051D-12  .000000000000D+00
     .370000000000D+02  .113625000000D+03  .481484341470D-08  .188784299043D+01
     .587664544582D-05  .859934766777D-02  .651925802231D-05  .515366837502D+04
     .453600000000D+06 -.242143869400D-06 -.120680856602D+01  .428408384323D-07
     .956528070342D+00  .252593750000D+03  .626005584674D+00 -.825248660633D-08
     .710743891050D-10  .100000000000D+01  .154800000000D+04  .000000000000D+00
     .240000000000D+01  .000000000000D+00 -.279396772385D-08  .370000000000D+02
     .446406000000D+06  .400000000000D+01
11 09  9 11  6  0  0.0 -.191084109247D-04 -.170530256582D-11  .000000000000D+00
     .900000000000D+01  .146875000000D+02  .620347268525D-08 -.977596219229D+00
     .890344381332D-06  .980215577874D-02  .838749110699D-05  .515369631958D+04
     .453600000000D+06  .223517417908D-06 -.249759552891D+01  .156462192535D-06
     .889317579053D+00  .176718750000D+03  .724491212024D+00 -.876857953225D-08
    -.193936649668D-09  .100000000000D+01  .154800000000D+04  .000000000000D+00
     .240000000000D+01  .000000000000D+00 -.116415321827D-07  .900000000000D+01
     .446406000000D+06  .400000000000D+01
12 09  9 11  6  0  0.0 -.220719259232D-03  .568434188608D-11  .000000000000D+00
     .930000000000D+02 -.404687500000D+02  .425303429881D-08 -.817257403148D+00
    -.196509063244D-05  .310031150002D-02  .806152820587D-05  .515357651901D+04
     .453600000000D+06 -.670552253723D-07  .191734519120D+01 -.409781932831D-07
     .967778678404D+00  .230000000000D+03 -.588340478034D+00 -.783675500373D-08
     .347157317639D-09  .100000000000D+01  .154800000000D+04  .000000000000D+00
     .240000000000D+01  .000000000000D+00 -.116415321827D-07  .930000000000D+02
     .446406000000D+06  .400000000000D+01
13 09  9 11  6  0  0.0  .304450746626D-03  .568434188608D-12  .000000000000D+00
     .400000000000D+02 -.193437500000D+02  .390909140078D-08  .145897872322D+01
    -.122934579849D-05  .401497655548D-02  .366382300854D-05  .515365427780D+04
     .453600000000D+06 -.484287738800D-07 -.122400017949D+00 -.150874257088D-06
     .994691370808D+00  .324718750000D+03  .165890864782D+01 -.792890169915D-08
    -.198579700213D-09  .100000000000D+01  .154800000000D+04  .000000000000D+00
     .240000000000D+01  .000000000000D+00 -.111758708954D-07  .400000000000D+02
     .446406000000D+06  .400000000000D+01
14 09  9 11  6  0  0.0 -.525731593370D-04  .522959453519D-11  .000000000000D+00
     .480000000000D+02 -.115625000000D+01  .408409869053D-08  .143059576304D+01
    -.100582838058D-06  .490624725353D-02  .386126339436D-05  .515364613724D+04
     .453600000000D+06 -.113621354103D-06 -.142560121881D+00  .670552253723D-07
     .988116907241D+00  .321812500000D+03 -.215825085286D+01 -.805962142987D-08
    -.162863926793D-09  .100000000000D+01  .154800000000D+04  .000000000000D+00
     .240000000000D+01  .000000000000D+00 -.884756445885D-08  .480000000000D+02
     .446406000000D+06  .400000000000D+01
15 09  9 11  6  0  0.0 -.317854341120D-03 -.125055521494D-11  .000000000000D+00
     .179000000000D+03 -.209375000000D+01  .490770442559D-08  .164876808736D+01
     .000000000000D+00  .166684517171D-02  .254251062870D-05  .515366101456D+04
     .453600000000D+06  .279396772385D-07 -.198362026049D+00 -.614672899246D-07
     .955981819657D+00  .323906250000D+03 -.517754221353D+00 -.852214069565D-08
    -.208580116771D-09  .100000000000D+01  .154800000000D+04  .000000000000D+00
     .240000000000D+01  .000000000000D+00 -.977888703346D-08  .179000000000D+03
     .446406000000D+06  .400000000000D+01
16 09  9 11  6  0  0.0  .139344483614D-04 -.386535248253D-11  .000000000000D+00
     .910000000000D+02 -.317812500000D+02  .423696220077D-08  .305644934676D+01
    -.165030360222D-05  .529642647598D-02  .809133052826D-05  .515361790466D+04
     .453600000000D+06 -.204890966415D-07  .193444877650D+01  .931322574615D-08
     .969167837616D+00  .229343750000D+03 -.275975201989D+00 -.782318300983D-08
     .288940606965D-09  .100000000000D+01  .154800000000D+04  .000000000000D+00
     .240000000000D+01  .000000000000D+00 -.977888703346D-08  .910000000000D+02
     .446406000000D+06  .400000000000D+01
18 09  9 11  6  0  0.0  .119330361485D-04  .295585778076D-11  .000000000000D+00
     .250000000000D+02  .951562500000D+02  .499520807047D-08 -.302086437942D+01
     .482611358166D-05  .109081683913D-01  .628642737865D-05  .515363013458D+04
     .453600000000D+06 -.204890966415D-07 -.120298393786D+01 -.234693288803D-06
     .940556044860D+00  .247093750000D+03 -.238132939188D+01 -.819641284207D-08
     .257153568621D-10  .100000000000D+01  .154800000000D+04  .000000000000D+00
     .240000000000D+01  .000000000000D+00 -.107102096081D-07  .250000000000D+02
     .446406000000D+06  .400000000000D+01
19 09  9 11  6  0  0.0  .113118439913D-04 -.170530256582D-11  .000000000000D+00
     .560000000000D+02 -.172187500000D+02  .472019661514D-08  .128226197456D+01
    -.853091478348D-06  .583359401207D-02  .706873834133D-05  .515364580154D+04
     .453600000000D+06  .651925802231D-07  .303281423453D+01  .726431608200D-07
     .957903880427D+00  .240781250000D+03 -.263308764255D+00 -.803319175754D-08
    -.992898501065D-10  .100000000000D+01  .154800000000D+04  .000000000000D+00
     .240000000000D+01  .000000000000D+00 -.149011611938D-07  .560000000000D+02
     .446406000000D+06  .400000000000D+01
20 09  9 11  6  0  0.0  .725714489818D-04 -.909494701773D-12  .000000000000D+00
     .840000000000D+02  .945625000000D+02  .511842748876D-08 -.284286619791D+01
     .492483377457D-05  .383649021387D-02  .569969415665D-05  .515377642250D+04
     .453600000000D+06  .100582838058D-06 -.125688608930D+01 -.931322574615D-08
     .940254617905D+00  .259218750000D+03  .132747503482D+01 -.830963184381D-08
     .585738684082D-10  .100000000000D+01  .154800000000D+04  .000000000000D+00
     .240000000000D+01  .000000000000D+00 -.745058059692D-08  .840000000000D+02
     .446406000000D+06  .400000000000D+01
21 09  9 11  6  0  0.0 -.847969204187D-05 -.227373675443D-11  .000000000000D+00
     .570000000000D+02  .335000000000D+02  .505271046567D-08 -.178213676078D+01
     .141933560371D-05  .155537975952D-01  .918097794056D-05  .515375661087D+04
     .453600000000D+06  .104308128357D-06 -.226142855881D+01 -.176951289177D-06
     .933629957230D+00  .183468750000D+03 -.256025198548D+01 -.804819238237D-08
    -.321441960776D-11  .100000000000D+01  .154800000000D+04  .000000000000D+00
     .240000000000D+01  .000000000000D+00 -.121071934700D-07  .570000000000D+02
     .446406000000D+06  .400000000000D+01
22 09  9 11  6  0  0.0  .191233586520D-03 -.909494701773D-12  .000000000000D+00
     .870000000000D+02  .853125000000D+02  .513985695282D-08  .224071759746D+01
     .445544719696D-05  .533280731179D-02  .640749931335D-05  .515366142082D+04
     .453600000000D+06  .298023223877D-07 -.119752000760D+01 -.113621354103D-06
     .938228214503D+00  .244750000000D+03 -.189283621364D+01 -.829141679936D-08
     .385730352932D-10  .100000000000D+01  .154800000000D+04  .000000000000D+00
     .340000000000D+01  .000000000000D+00 -.176951289177D-07  .870000000000D+02
     .446406000000D+06  .400000000000D+01
23 09  9 11  6  0  0.0  .388684682548D-03 -.454747350886D-12  .000000000000D+00
     .950000000000D+02 -.133125000000D+02  .451018786743D-08  .777815124608D+00
    -.795349478722D-06  .646269810386D-02  .290200114250D-05  .515357417679D+04
     .453600000000D+06  .856816768646D-07 -.176922992318D+00 -.167638063431D-07
     .970041407444D+00  .322843750000D+03  .296803042297D+01 -.826713007344D-08
    -.259296515026D-09  .100000000000D+01  .154800000000D+04  .000000000000D+00
     .240000000000D+01  .000000000000D+00 -.200234353542D-07  .950000000000D+02
     .446406000000D+06  .400000000000D+01
24 09  9 11  6  0  0.0  .219655223191D-03  .295585778076D-11  .000000000000D+00
     .880000000000D+02  .450937500000D+02  .468269505304D-08 -.312395158195D+01
     .239722430706D-05  .648374704178D-02  .996701419353D-05  .515367021370D+04
     .453600000000D+06 -.819563865662D-07 -.222747556291D+01  .745058059692D-07
     .950231663614D+00  .178968750000D+03 -.627721641709D+00 -.788961434839D-08
    -.195008122871D-09  .100000000000D+01  .154800000000D+04  .000000000000D+00
     .485000000000D+01  .000000000000D+00 -.139698386192D-08  .880000000000D+02
     .446406000000D+06  .400000000000D+01
26 09  9 11  6  0  0.0  .630561262369D-04 -.909494701773D-12  .000000000000D+00
     .870000000000D+02 -.121875000000D+01  .392730644522D-08 -.140867544389D+01
     .210478901863D-06  .196961798938D-01  .335648655891D-05  .515360813904D+04
     .453600000000D+06  .432133674622D-06 -.124961572877D+00  .223517417908D-06
     .992498829651D+00  .327750000000D+03  .102612203115D+01 -.785318425950D-08
    -.122862260563D-09  .100000000000D+01  .154800000000D+04  .000000000000D+00
     .240000000000D+01  .000000000000D+00 -.605359673500D-08  .870000000000D+02
     .446406000000D+06  .400000000000D+01
